OBJECT_NAME,OBJECT_ID,EPOCH,MEAN_MOTION,ECCENTRICITY,INCLINATION,RA_OF_ASC_NODE,ARG_OF_PERICENTER,MEAN_ANOMALY,EPHEMERIS_TYPE,CLASSIFICATION_TYPE,NORAD_CAT_ID,ELEMENT_SET_NO,REV_AT_EPOCH,BSTAR,MEAN_MOTION_DOT,MEAN_MOTION_DDOT
STARLINK-36130,2025-286G,2026-07-13T05:27:21.070944,15.34417191,.0002736,53.1609,133.4645,80.1885,279.9426,0,U,66931,999,3466,.5365E-3,.17804E-3,0
STARLINK-36177,2025-286H,2026-07-12T06:06:28.437120,15.34395725,.0001154,53.1577,138.0601,77.9960,282.1172,0,U,66932,999,3451,.34311E-3,.11232E-3,0
STARLINK-36157,2025-286J,2026-07-11T21:07:57.758304,15.34392524,.00014237,53.1568,139.9894,91.2934,268.8232,0,U,66933,999,3445,.41329276E-3,.1361E-3,0
STARLINK-36153,2025-286K,2026-07-12T23:48:31.146624,15.34424344,.00008477,53.1584,134.8363,66.4507,293.6584,0,U,66934,999,3462,.83916565E-3,.28105E-3,0
STARLINK-36127,2025-286L,2026-07-13T05:09:09.705024,15.34414237,.0000285,53.1571,133.3883,136.2845,223.8180,0,U,66935,999,3466,.48733E-3,.16132E-3,0
STARLINK-36160,2025-286M,2026-07-13T05:21:17.440992,15.34409515,.0002276,53.1576,133.4377,74.5259,285.5995,0,U,66936,999,3465,.39592E-3,.13028E-3,0
STARLINK-36165,2025-286N,2026-07-13T05:42:29.293056,15.34407587,.0000553,53.1594,133.5344,358.9087,1.1914,0,U,66937,999,3466,.46049E-3,.15218E-3,0
STARLINK-36155,2025-286P,2026-07-13T05:30:22.885920,15.34418351,.0002973,53.1586,133.4755,70.1208,290.0114,0,U,66938,999,3466,.57456E-3,.19098E-3,0
STARLINK-36154,2025-286Q,2026-07-13T05:18:15.033312,15.34413514,.0000716,53.1587,133.4252,112.0761,248.0318,0,U,66939,999,3466,.59606E-3,.19825E-3,0
STARLINK-36121,2025-286R,2026-07-13T05:36:26.557344,15.34405674,.0002638,53.1550,133.5040,87.5673,272.5632,0,U,66940,999,3466,.44373E-3,.14648E-3,0
STARLINK-36088,2025-286S,2026-07-13T00:09:36.233568,15.34412033,.00020376,53.1578,134.2138,84.7862,275.3373,0,U,66941,999,3463,.72241945E-3,.2412E-3,0
STARLINK-36100,2025-286T,2026-07-12T06:27:40.747104,15.34402906,.0000696,53.1575,138.1505,69.7399,290.3679,0,U,66942,999,3444,.62824E-3,.20911E-3,0
STARLINK-36109,2025-286U,2026-07-13T05:15:13.067136,15.34416255,.0000805,53.1573,133.4105,160.3748,199.7286,0,U,66943,999,3459,.68167E-3,.22737E-3,0
STARLINK-36112,2025-286V,2026-07-12T05:36:10.780704,15.34397970,.0001478,53.1594,137.9233,85.1035,275.0136,0,U,66944,999,3451,.69152E-3,.23058E-3,0
STARLINK-36110,2025-286W,2026-07-13T05:51:34.872768,15.34417300,.0002142,53.1556,133.5660,107.0166,253.1072,0,U,66945,999,3466,.50016E-3,.16569E-3,0
STARLINK-36115,2025-286X,2026-07-12T06:12:31.919328,15.34414694,.0001046,53.1589,138.0845,63.3121,296.7988,0,U,66946,999,3451,.80064E-3,.26784E-3,0
STARLINK-36089,2025-286Y,2026-07-12T23:45:29.408544,15.34404900,.00015902,53.1567,134.8215,96.6365,263.4819,0,U,66947,999,3462,.28374394E-3,.9224E-4,0
STARLINK-36116,2025-286Z,2026-07-13T06:18:49.897728,15.34429505,.0000947,53.1570,133.6829,62.7637,297.3462,0,U,66948,999,3465,.68404E-3,.22827E-3,0
STARLINK-36096,2025-286AA,2026-07-13T04:57:03.119904,15.34402485,.0001202,53.1578,133.3310,91.9620,268.1520,0,U,66949,999,3466,.4031E-3,.13268E-3,0
STARLINK-36111,2025-286AB,2026-07-13T00:12:36.842400,15.34381596,.00011392,53.1558,134.2270,119.8459,240.2657,0,U,66950,999,3463,.49195177E-3,.16272E-3,0
STARLINK-35999,2025-286AC,2026-07-13T05:48:31.881024,15.34443965,.0002208,53.1575,133.5560,49.0309,311.0884,0,U,66951,999,3466,.64228E-3,.21417E-3,0
STARLINK-36122,2025-286AD,2026-07-13T05:24:19.371744,15.34410157,.0002428,53.1589,133.4466,81.2213,278.9064,0,U,66952,999,3466,.44427E-3,.14668E-3,0
STARLINK-35887,2025-288A,2026-07-12T20:55:13.988352,15.27593309,.00011625,43.0036,36.3865,257.9155,102.1567,0,U,66959,999,3443,.38066669E-3,.10232E-3,0
STARLINK-35879,2025-288B,2026-07-12T22:49:44.785920,15.27585731,.00014648,43.0038,36.1236,270.6242,89.4442,0,U,66960,999,3444,.43667298E-3,.11775E-3,0
STARLINK-35761,2025-288C,2026-07-12T23:33:59.542560,15.27559031,.0003494,43.0011,35.4946,48.9136,311.2017,0,U,66961,999,3445,.48947615E-3,.13224E-3,0
STARLINK-35874,2025-288D,2026-07-12T23:28:35.832864,15.27577438,.00020112,43.0025,36.3229,266.7091,93.3530,0,U,66962,999,3444,.67204316E-3,.18276E-3,0
STARLINK-36133,2025-288E,2026-07-13T12:59:00.150144,15.27591533,.0001124,43.0014,32.8052,257.7685,102.3040,0,U,66963,999,3453,.44957E-3,.12134E-3,0
STARLINK-36104,2025-288F,2026-07-12T21:41:29.505408,15.27595337,.00013031,43.0033,36.6244,272.8261,87.2441,0,U,66964,999,3443,.47937927E-3,.12959E-3,0
STARLINK-36067,2025-288G,2026-07-11T21:09:56.054592,15.27558721,.0000659,42.9999,41.8606,307.5384,52.5408,0,U,66965,999,3428,.56924E-3,.15425E-3,0
STARLINK-36139,2025-288H,2026-07-12T23:52:26.270400,15.27589655,.00016902,43.0030,35.5854,265.8246,94.2413,0,U,66966,999,3445,.4466044E-3,.12051E-3,0
